[{"OBJECT_NAME":"ONEWEB-0574","OBJECT_ID":"2023-043T","EPOCH":"2026-03-09T13:48:57.505248","MEAN_MOTION":13.2182565,"ECCENTRICITY":0.0001436,"INCLINATION":87.9173,"RA_OF_ASC_NODE":263.8283,"ARG_OF_PERICENTER":91.5424,"MEAN_ANOMALY":268.5874,"EPHEMERIS_TYPE":0,"CLASSIFICATION_TYPE":"U","NORAD_CAT_ID":56063,"ELEMENT_SET_NO":999,"REV_AT_EPOCH":14511,"BSTAR":9.7251e-5,"MEAN_MOTION_DOT":5.3e-7,"MEAN_MOTION_DDOT":0},{"OBJECT_NAME":"FENGYUN 1C DEB","OBJECT_ID":"1999-025X","EPOCH":"2026-03-09T02:35:04.910208","MEAN_MOTION":12.96604756,"ECCENTRICITY":0.05636502,"INCLINATION":99.2146,"RA_OF_ASC_NODE":116.0301,"ARG_OF_PERICENTER":2.7664,"MEAN_ANOMALY":21.6115,"EPHEMERIS_TYPE":0,"CLASSIFICATION_TYPE":"U","NORAD_CAT_ID":29733,"ELEMENT_SET_NO":999,"REV_AT_EPOCH":90239,"BSTAR":0.0015095787,"MEAN_MOTION_DOT":8.65e-6,"MEAN_MOTION_DDOT":0}]
